$$SOE
2461295.500000000, A.D. 2026-Sep-12 00:00:00.0000, -3.005435403020307E+08, -3.058477872192494E+08, 1.957159543929262E+07,
2461302.500000000, A.D. 2026-Sep-19 00:00:00.0000, -2.913596802667300E+08, -3.099270393148838E+08, 1.846201669061138E+07,
2461309.500000000, A.D. 2026-Sep-26 00:00:00.0000, -2.819925775895779E+08, -3.138113546315535E+08, 1.734082861616620E+07,
2461316.500000000, A.D. 2026-Oct-03 00:00:00.0000, -2.724436495515047E+08, -3.174933101227680E+08, 1.620846137259048E+07,
2461323.500000000, A.D. 2026-Oct-10 00:00:00.0000, -2.627145150019247E+08, -3.209652420150565E+08, 1.506537525355981E+07,
2461330.500000000, A.D. 2026-Oct-17 00:00:00.0000, -2.528070133554932E+08, -3.242192379886211E+08, 1.391206295870310E+07,
2461337.500000000, A.D. 2026-Oct-24 00:00:00.0000, -2.427232252600994E+08, -3.272471296689691E+08, 1.274905201916237E+07,
2461344.500000000, A.D. 2026-Oct-31 00:00:00.0000, -2.324654949736130E+08, -3.300404855991037E+08, 1.157690737568094E+07,
2461351.500000000, A.D. 2026-Nov-07 00:00:00.0000, -2.220364542544281E+08, -3.325906047403488E+08, 1.039623409466352E+07,
2461358.500000000, A.D. 2026-Nov-14 00:00:00.0000, -2.114390477164556E+08, -3.348885097587124E+08, 9.207680286751330E+06,
2461365.500000000, A.D. 2026-Nov-21 00:00:00.0000, -2.006765616180454E+08, -3.369249395843105E+08, 8.011940459938109E+06,
2461372.500000000, A.D. 2026-Nov-28 00:00:00.0000, -1.897526572453274E+08, -3.386903444512623E+08, 6.809759162425086E+06,
2461379.500000000, A.D. 2026-Dec-05 00:00:00.0000, -1.786714054376241E+08, -3.401748843099430E+08, 5.601934538290516E+06,
2461386.500000000, A.D. 2026-Dec-12 00:00:00.0000, -1.674373222604095E+08, -3.413684277751737E+08, 4.389322042693019E+06,
2461393.500000000, A.D. 2026-Dec-19 00:00:00.0000, -1.560554078817995E+08, -3.422605519206780E+08, 3.172838495999426E+06,
2461400.500000000, A.D. 2026-Dec-26 00:00:00.0000, -1.445311889573134E+08, -3.428405441530213E+08, 1.953466422125354E+06,
2461407.500000000, A.D. 2027-Jan-02 00:00:00.0000, -1.328707643976430E+08, -3.430974067763845E+08, 7.322586298995018E+05,
2461414.500000000, A.D. 2027-Jan-09 00:00:00.0000, -1.210808545345101E+08, -3.430198647113037E+08, -4.896569763219059E+05,
2461421.500000000, A.D. 2027-Jan-16 00:00:00.0000, -1.091688537552743E+08, -3.425963769123141E+08, -1.711072369415060E+06,
2461428.500000000, A.D. 2027-Jan-23 00:00:00.0000, -9.714288663032404E+07, -3.418151521541826E+08, -2.930694179836959E+06,
2461435.500000000, A.D. 2027-Jan-30 00:00:00.0000, -8.501186736562131E+07, -3.406641699459818E+08, -4.147138329810694E+06,
2461442.500000000, A.D. 2027-Feb-06 00:00:00.0000, -7.278556210873133E+07, -3.391312070315671E+08, -5.358924568011716E+06,
2461449.500000000, A.D. 2027-Feb-13 00:00:00.0000, -6.047465443499552E+07, -3.372038691469955E+08, -6.564470810925916E+06,
2461456.500000000, A.D. 2027-Feb-20 00:00:00.0000, -4.809081613343760E+07, -3.348696298095703E+08, -7.762087201922968E+06,
2461463.500000000, A.D. 2027-Feb-27 00:00:00.0000, -3.564678151353890E+07, -3.321158804314503E+08, -8.949970359977141E+06,
2461470.500000000, A.D. 2027-Mar-06 00:00:00.0000, -2.315642166425368E+07, -3.289299910095545E+08, -1.012619803997605E+07,
2461477.500000000, A.D. 2027-Mar-13 00:00:00.0000, -1.063481951400577E+07, -3.252993805986362E+08, -1.128872401672180E+07,
2461484.500000000, A.D. 2027-Mar-20 00:00:00.0000, 1.901654171542272E+06, -3.212115997188892E+08, -1.243537331116527E+07,
2461491.500000000, A.D. 2027-Mar-27 00:00:00.0000, 1.443526533404214E+07, -3.166544265947351E+08, -1.356383800696822E+07,
2461498.500000000, A.D. 2027-Apr-03 00:00:00.0000, 2.694684352539063E+07, -3.116159786104890E+08, -1.467167389857218E+07,
2461505.500000000, A.D. 2027-Apr-10 00:00:00.0000, 3.941571323159180E+07, -3.060848402391136E+08, -1.575629823052517E+07,
2461512.500000000, A.D. 2027-Apr-17 00:00:00.0000, 5.181963207546571E+07, -3.000502086217706E+08, -1.681498882758501E+07,
2461519.500000000, A.D. 2027-Apr-24 00:00:00.0000, 6.413473887735181E+07, -2.935020578286074E+08, -1.784488496535645E+07,
2461526.500000000, A.D. 2027-May-01 00:00:00.0000, 7.633551525342171E+07, -2.864313224297274E+08, -1.884299038288486E+07,
2461533.500000000, A.D. 2027-May-08 00:00:00.0000, 8.839476492682485E+07, -2.788300998266639E+08, -1.980617881426123E+07,
2461540.500000000, A.D. 2027-May-15 00:00:00.0000, 1.002836135974526E+08, -2.706918699700841E+08, -2.073120225979905E+07,
2461547.500000000, A.D. 2027-May-22 00:00:00.0000, 1.119715325720990E+08, -2.620117338410858E+08, -2.161470251435263E+07,
2461554.500000000, A.D. 2027-May-29 00:00:00.0000, 1.234263945981804E+08, -2.527866699776345E+08, -2.245322682567878E+07,
2461561.500000000, A.D. 2027-Jun-05 00:00:00.0000, 1.346145680293265E+08, -2.430158025757009E+08, -2.324324792517072E+07,
2461568.500000000, A.D. 2027-Jun-12 00:00:00.0000, 1.455010524789518E+08, -2.327006760654811E+08, -2.398118856972885E+07,
2461575.500000000, A.D. 2027-Jun-19 00:00:00.0000, 1.560496604083858E+08, -2.218455309581049E+08, -2.466345090288045E+07,
2461582.500000000, A.D. 2027-Jun-26 00:00:00.0000, 1.662232489408648E+08, -2.104575735369988E+08, -2.528645080569945E+07,
2461589.500000000, A.D. 2027-Jul-03 00:00:00.0000, 1.759840048327308E+08, -1.985472301684854E+08, -2.584665718830545E+07,
2461596.500000000, A.D. 2027-Jul-10 00:00:00.0000, 1.852937837303973E+08, -1.861283756172247E+08, -2.634063593391383E+07,
2461603.500000000, A.D. 2027-Jul-17 00:00:00.0000, 1.941145026252121E+08, -1.732185237026432E+08, -2.676509793976727E+07,
2461610.500000000, A.D. 2027-Jul-24 00:00:00.0000, 2.024085818576584E+08, -1.598389680230827E+08, -2.711695040992264E+07,
2461617.500000000, A.D. 2027-Jul-31 00:00:00.0000, 2.101394302394313E+08, -1.460148602002449E+08, -2.739335023898208E+07,
2461624.500000000, A.D. 2027-Aug-07 00:00:00.0000, 2.172719630053317E+08, -1.317752130325946E+08, -2.759175789092127E+07,
2461631.500000000, A.D. 2027-Aug-14 00:00:00.0000, 2.237731369747617E+08, -1.171528191237918E+08, -2.770998983264823E+07,
2461638.500000000, A.D. 2027-Aug-21 00:00:00.0000, 2.296124873100458E+08, -1.021840813902791E+08, -2.774626790542988E+07,
2461645.500000000, A.D. 2027-Aug-28 00:00:00.0000, 2.347626508171962E+08, -8.690875093309198E+07, -2.769926380464636E+07,
2461652.500000000, A.D. 2027-Sep-04 00:00:00.0000, 2.391998548302594E+08, -7.136957086314191E+07, -2.756813633905372E+07,
2461659.500000000, A.D. 2027-Sep-11 00:00:00.0000, 2.429043504235340E+08, -5.561183268346959E+07, -2.735255955158911E+07,
2461666.500000000, A.D. 2027-Sep-18 00:00:00.0000, 2.458607715192481E+08, -3.968285672830842E+07, -2.705274024167616E+07,
2461673.500000000, A.D. 2027-Sep-25 00:00:00.0000, 2.480584042548742E+08, -2.363141211542091E+07, -2.666942384557545E+07,
2461680.500000000, A.D. 2027-Oct-02 00:00:00.0000, 2.494913547881276E+08, -7.507095278608477E+06, -2.620388816889293E+07,
2461687.500000000, A.D. 2027-Oct-09 00:00:00.0000, 2.501586086003100E+08, 8.640311295206564E+06, -2.565792508022979E+07,
2461694.500000000, A.D. 2027-Oct-16 00:00:00.0000, 2.500639798790258E+08, 2.476147737514479E+07, -2.503381089802315E+07,
2461701.500000000, A.D. 2027-Oct-23 00:00:00.0000, 2.492159552877178E+08, 4.080813812125399E+07, -2.433426677251911E+07,
2461708.500000000, A.D. 2027-Oct-30 00:00:00.0000, 2.476274416253143E+08, 5.673366241364286E+07, -2.356241077290951E+07,
2461715.500000000, A.D. 2027-Nov-06 00:00:00.0000, 2.453154295914939E+08, 7.249356051501681E+07, -2.272170351777963E+07,
2461722.500000000, A.D. 2027-Nov-13 00:00:00.0000, 2.423005881896496E+08, 8.804591612587658E+07, -2.181588954058538E+07,
2461729.500000000, A.D. 2027-Nov-20 00:00:00.0000, 2.386068109536027E+08, 1.033517323527170E+08, -2.084893704859240E+07,
2461736.500000000, A.D. 2027-Nov-27 00:00:00.0000, 2.342607343279248E+08, 1.183751909123765E+08, -1.982497806120044E+07,
2461743.500000000, A.D. 2027-Dec-04 00:00:00.0000, 2.292912441635782E+08, 1.330838261688564E+08, -1.874825050739923E+07,
2461750.500000000, A.D. 2027-Dec-11 00:00:00.0000, 2.237289860645880E+08, 1.474486174134361E+08, -1.762304383458835E+07,
2461757.500000000, A.D. 2027-Dec-18 00:00:00.0000, 2.176058937502265E+08, 1.614440063159494E+08, -1.645364934713440E+07,
2461764.500000000, A.D. 2027-Dec-25 00:00:00.0000, 2.109547466825299E+08, 1.750478488314566E+08, -1.524431608763964E+07,
2461771.500000000, A.D. 2028-Jan-01 00:00:00.0000, 2.038087651855266E+08, 1.882413120281321E+08, -1.399921271558091E+07,
$$EOE